sat00194
1 00194U 61028C   20046.20923703  .00000017  00000-0  90829-2 0  9997
2 00194  95.8523 118.6002 0371441 305.0932  51.5625  8.70048893852004
